PANDORA
1 67395U 80229J   26100.71261574  .00000000  00000-0  37770-3 0    03
2 67395  97.8062 100.4257 0005233   8.8023 293.4365 14.87962636    01
